STARLINK-30964          
1 58402U 23180A   26177.99840504 -.00002393  00000+0 -77478-4 0  9990
2 58402  43.0042 155.2081 0001949 273.6879  86.3749 15.27567673144343
STARLINK-30844          
1 58403U 23180B   26178.21897788  .00000289  00000+0  20032-4 0  9997
2 58403  42.9993 154.2843 0001083 267.0076  93.0652 15.27576857144259
STARLINK-30876          
1 58404U 23180C   26178.21512671  .00000748  00000+0  36702-4 0  9994
2 58404  42.9998 154.2554 0001487 267.5705  92.4976 15.27575827144377
STARLINK-30952          
1 58405U 23180D   26178.00868388 -.00001008  00000+0 -27136-4 0  9994
2 58405  43.0019 155.2858 0001221 269.9860  90.0852 15.27571537144232
STARLINK-30925          
1 58406U 23180E   26178.01125390 -.00000216  00000+0  16702-5 0  9992
2 58406  43.0009 155.3051 0001650 273.2553  86.8110 15.27574717144223
STARLINK-30954          
1 58407U 23180F   26177.66504212 -.00000230  00000+0  11624-5 0  9991
2 58407  43.0040 157.0085 0001303 262.0707  97.9997 15.27576063144296
STARLINK-30906          
1 58408U 23180G   26178.23389501 -.00001115  00000+0 -31031-4 0  9995
2 58408  43.0014 157.6372 0000910 243.5825 116.4934 15.27560728144223
STARLINK-30940          
1 58409U 23180H   26178.22558792 -.00001181  00000+0 -33423-4 0  9995
2 58409  43.0031   8.8672 0001330 266.6693  93.4006 15.27572707146089
STARLINK-30933          
1 58410U 23180J   26178.23701523 -.00001552  00000+0 -46914-4 0  9991
2 58410  43.0058   8.0806 0001547 273.9790  86.0885 15.27564015146097
STARLINK-30919          
1 58411U 23180K   26178.23298353 -.00003009  00000+0 -99959-4 0  9990
2 58411  43.0004 153.4534 0001539 281.8787  78.1892 15.27551510144282
STARLINK-30924          
1 58412U 23180L   26177.91668980  .00202904  00000+0  35348-2 0  9995
2 58412  42.9961 357.0239 0018437 293.2239  44.4112 15.49105866  5854
STARLINK-30931          
1 58413U 23180M   26178.18817813 -.00000663  00000+0 -14563-4 0  9995
2 58413  43.0010 142.9034 0000987 272.9441  87.1297 15.27575864144505
STARLINK-30922          
1 58414U 23180N   26178.21126860  .00000320  00000+0  21157-4 0  9990
2 58414  43.0001 154.2110 0000859 261.0168  99.0586 15.27572519144372
STARLINK-30949          
1 58415U 23180P   26178.20098855 -.00000582  00000+0 -11643-4 0  9993
2 58415  43.0020 154.1187 0001151 259.0325 101.0397 15.27570397144371
STARLINK-30967          
1 58416U 23180Q   26178.19713824  .00000487  00000+0  27233-4 0  9996
2 58416  43.0045 154.1099 0001669 284.2545  75.8121 15.27584403144375
STARLINK-30955          
1 58417U 23180R   26178.23037204  .00000625  00000+0  32213-4 0  9991
2 58417  43.0046 153.4971 0000972 275.8336  84.2404 15.27593351144389
STARLINK-30895          
1 58418U 23180S   26177.99455100 -.00000354  00000+0 -33594-5 0  9998
2 58418  43.0011 155.1807 0000880 258.2194 101.8559 15.27578387144237
STARLINK-30917          
1 58419U 23180T   26177.93001169 -.00000576  00000+0 -11398-4 0  9998
2 58419  43.0038  46.8272 0001299 264.8943  95.1761 15.27571931145609
STARLINK-30899          
1 58420U 23180U   26178.23810588  .00001265  00000+0  55495-4 0  9997
2 58420  43.0039 153.5676 0001051 239.9981 120.0767 15.27570268144264
STARLINK-30902          
1 58421U 23180V   26177.99710936 -.00001085  00000+0 -29916-4 0  9997
2 58421  42.9993 155.1898 0000864 224.8002 135.2780 15.27578798144230
STARLINK-30912          
1 58422U 23180W   26177.92370176 -.00000164  00000+0  35804-5 0  9999
2 58422  43.0068  13.4019 0001678 255.1567 104.9099 15.27567910146001
STARLINK-30900          
1 58423U 23180X   26177.92531198  .00007319  00000+0  27561-3 0  9990
2 58423  43.0051 155.4706 0001962 269.2894  90.7733 15.27533221144226
STARLINK-30908          
1 58424U 23180Y   26177.99325269 -.00000863  00000+0 -21848-4 0  9990
2 58424  43.0034 155.0771 0001277 277.6111  82.4595 15.27572291144347
STARLINK-30869          
1 58437U 23183A   26177.95234124  .00014045  00000+0  51891-3 0  9997
2 58437  43.0007 144.6478 0001538 265.6859  94.3817 15.27580482143445
STARLINK-30969          
1 58438U 23183B   26178.21003405 -.00000172  00000+0  32536-5 0  9998
2 58438  42.9985 143.1444 0000871 269.7782  90.2970 15.27568581143480
STARLINK-30951          
1 58439U 23183C   26177.95619752 -.00002214  00000+0 -70967-4 0  9996
2 58439  43.0021 144.6805 0000672 271.7861  88.2914 15.27580703143442
STARLINK-30950          
1 58440U 23183D   26178.08448691 -.00000652  00000+0 -14149-4 0  9999
2 58440  43.0048 307.3247 0001674 269.9051  90.1609 15.27572197145762
STARLINK-30942          
1 58441U 23183E   26178.17534249 -.00000249  00000+0  46774-6 0  9997
2 58441  43.0009 142.8834 0001493 264.3646  95.7036 15.27572894143488
STARLINK-30959          
1 58442U 23183F   26178.18561848 -.00002632  00000+0 -86161-4 0  9995
2 58442  43.0016 142.9619 0001120 264.9613  95.1111 15.27583996143489
STARLINK-30971          
1 58443U 23183G   26177.97418559 -.00000516  00000+0 -92174-5 0  9993
2 58443  42.9988 144.8006 0001316 246.7783 113.2930 15.27572259143447
