OBJECT_NAME,OBJECT_ID,EPOCH,MEAN_MOTION,ECCENTRICITY,INCLINATION,RA_OF_ASC_NODE,ARG_OF_PERICENTER,MEAN_ANOMALY,EPHEMERIS_TYPE,CLASSIFICATION_TYPE,NORAD_CAT_ID,ELEMENT_SET_NO,REV_AT_EPOCH,BSTAR,MEAN_MOTION_DOT,MEAN_MOTION_DDOT
STARLINK-30964,2023-180A,2026-06-26T23:57:42.195456,15.27567673,.00019495,43.0042,155.2081,273.6879,86.3749,0,U,58402,999,14434,-.77478488E-4,-.2393E-4,0
STARLINK-30844,2023-180B,2026-06-27T05:15:19.688832,15.27576857,.00010836,42.9993,154.2843,267.0076,93.0652,0,U,58403,999,14425,.2003195E-4,.289E-5,0
STARLINK-30876,2023-180C,2026-06-27T05:09:46.947744,15.27575827,.00014878,42.9998,154.2554,267.5705,92.4976,0,U,58404,999,14437,.36701685E-4,.748E-5,0
STARLINK-30952,2023-180D,2026-06-27T00:12:30.287232,15.27571537,.00012218,43.0019,155.2858,269.9860,90.0852,0,U,58405,999,14423,-.27136146E-4,-.1008E-4,0
STARLINK-30925,2023-180E,2026-06-27T00:16:12.336960,15.27574717,.00016507,43.0009,155.3051,273.2553,86.8110,0,U,58406,999,14422,.1670196E-5,-.216E-5,0
STARLINK-30954,2023-180F,2026-06-26T15:57:39.639168,15.27576063,.0001303,43.0040,157.0085,262.0707,97.9997,0,U,58407,999,14429,.1162418E-5,-.23E-5,0
STARLINK-30906,2023-180G,2026-06-27T05:36:48.528864,15.27560728,.00009109,43.0014,157.6372,243.5825,116.4934,0,U,58408,999,14422,-.31031005E-4,-.1115E-4,0
STARLINK-30940,2023-180H,2026-06-27T05:24:50.796288,15.27572707,.00013309,43.0031,8.8672,266.6693,93.4006,0,U,58409,999,14608,-.33422626E-4,-.1181E-4,0
STARLINK-30933,2023-180J,2026-06-27T05:41:18.115872,15.27564015,.00015471,43.0058,8.0806,273.9790,86.0885,0,U,58410,999,14609,-.46914311E-4,-.1552E-4,0
STARLINK-30919,2023-180K,2026-06-27T05:35:29.776992,15.27551510,.00015394,43.0004,153.4534,281.8787,78.1892,0,U,58411,999,14428,-.9995897E-4,-.3009E-4,0
STARLINK-30924,2023-180L,2026-06-26T22:00:01.998720,15.49105866,.0018437,42.9961,357.0239,293.2239,44.4112,0,U,58412,999,585,.35348E-2,.202904E-2,0
STARLINK-30931,2023-180M,2026-06-27T04:30:58.590432,15.27575864,.0000987,43.0010,142.9034,272.9441,87.1297,0,U,58413,999,14450,-.14562859E-4,-.663E-5,0
STARLINK-30922,2023-180N,2026-06-27T05:04:13.607040,15.27572519,.00008597,43.0001,154.2110,261.0168,99.0586,0,U,58414,999,14437,.21157024E-4,.32E-5,0
STARLINK-30949,2023-180P,2026-06-27T04:49:25.410720,15.27570397,.0001151,43.0020,154.1187,259.0325,101.0397,0,U,58415,999,14437,-.11643143E-4,-.582E-5,0
STARLINK-30967,2023-180Q,2026-06-27T04:43:52.743936,15.27584403,.00016695,43.0045,154.1099,284.2545,75.8121,0,U,58416,999,14437,.27232638E-4,.487E-5,0
STARLINK-30955,2023-180R,2026-06-27T05:31:44.144256,15.27593351,.00009726,43.0046,153.4971,275.8336,84.2404,0,U,58417,999,14438,.32212684E-4,.625E-5,0
STARLINK-30895,2023-180S,2026-06-26T23:52:09.206400,15.27578387,.00008808,43.0011,155.1807,258.2194,101.8559,0,U,58418,999,14423,-.3359391E-5,-.354E-5,0
STARLINK-30917,2023-180T,2026-06-26T22:19:13.010016,15.27571931,.0001299,43.0038,46.8272,264.8943,95.1761,0,U,58419,999,14560,-.11398E-4,-.576E-5,0
STARLINK-30899,2023-180U,2026-06-27T05:42:52.348032,15.27570268,.0001051,43.0039,153.5676,239.9981,120.0767,0,U,58420,999,14426,.55495208E-4,.1265E-4,0
STARLINK-30902,2023-180V,2026-06-26T23:55:50.248704,15.27578798,.00008642,42.9993,155.1898,224.8002,135.2780,0,U,58421,999,14423,-.29915596E-4,-.1085E-4,0
STARLINK-30912,2023-180W,2026-06-26T22:10:07.832064,15.27567910,.0001678,43.0068,13.4019,255.1567,104.9099,0,U,58422,999,14600,.35804E-5,-.164E-5,0
STARLINK-30900,2023-180X,2026-06-26T22:12:26.955072,15.27533221,.0001962,43.0051,155.4706,269.2894,90.7733,0,U,58423,999,14422,.27561E-3,.7319E-4,0
STARLINK-30908,2023-180Y,2026-06-26T23:50:17.032416,15.27572291,.00012778,43.0034,155.0771,277.6111,82.4595,0,U,58424,999,14434,-.21848433E-4,-.863E-5,0
STARLINK-30869,2023-183A,2026-06-26T22:51:22.283136,15.27580482,.0001538,43.0007,144.6478,265.6859,94.3817,0,U,58437,999,14344,.51891E-3,.14045E-3,0
STARLINK-30969,2023-183B,2026-06-27T05:02:26.941920,15.27568581,.00008716,42.9985,143.1444,269.7782,90.2970,0,U,58438,999,14348,.3253646E-5,-.172E-5,0
STARLINK-30951,2023-183C,2026-06-26T22:56:55.465728,15.27580703,.0000672,43.0021,144.6805,271.7861,88.2914,0,U,58439,999,14344,-.70967E-4,-.2214E-4,0
STARLINK-30950,2023-183D,2026-06-27T02:01:39.669024,15.27572197,.00016744,43.0048,307.3247,269.9051,90.1609,0,U,58440,999,14576,-.14148727E-4,-.652E-5,0
STARLINK-30942,2023-183E,2026-06-27T04:12:29.591136,15.27572894,.0001493,43.0009,142.8834,264.3646,95.7036,0,U,58441,999,14348,.46774E-6,-.249E-5,0
STARLINK-30959,2023-183F,2026-06-27T04:27:17.436672,15.27583996,.00011204,43.0016,142.9619,264.9613,95.1111,0,U,58442,999,14348,-.86161396E-4,-.2632E-4,0
STARLINK-30971,2023-183G,2026-06-26T23:22:49.634976,15.27572259,.00013166,42.9988,144.8006,246.7783,113.2930,0,U,58443,999,14344,-.9217384E-5,-.516E-5,0
